{"type": "FeatureCollection", "features": [ {"type": "Feature", "properties": {"norad_id": 29843, "name": "FENGYUN 1C DEB", "group": "fengyun-1c-debris", "lat": 18.569245591342927, "lon": -169.82820748054337, "alt_km": 843.8020137699723, "timestamp": "2025-12-20T14:38:02.241549+00:00", "meta": {"OBJECT_NAME": "FENGYUN 1C DEB", "OBJECT_ID": "1999-025EM", "EPOCH": "2025-12-19T11:55:47.489952", "MEAN_MOTION": 14.28570168, "ECCENTRICITY": 0.019163, "INCLINATION": 99.0369, "RA_OF_ASC_NODE": 192.0839, "ARG_OF_PERICENTER": 271.0939, "MEAN_ANOMALY": 146.6827, "EPHEMERIS_TYPE": 0, "CLASSIFICATION_TYPE": "U", "NORAD_CAT_ID": 29843, "ELEMENT_SET_NO": 999, "REV_AT_EPOCH": 98378, "BSTAR": 0.00014868, "MEAN_MOTION_DOT": 4e-06, "MEAN_MOTION_DDOT": 0}, "tle": {"line1": "1 29843U 99025EM  25353.49707743  .00000400  00000+0  14868-3 0  9993", "line2": "2 29843  99.0369 192.0839 0191630 271.0939 146.6827 14.28570168983788"}}, "geometry": {"type": "Point", "coordinates": [-169.82820748054337, 18.569245591342927]}}, {"type": "Feature", "properties": {"norad_id": 29844, "name": "FENGYUN 1C DEB", "group": "fengyun-1c-debris", "lat": 22.725648537723295, "lon": 79.96943944489932, "alt_km": 666.8401924579821, "timestamp": "2025-12-20T14:38:02.241560+00:00", "meta": {"OBJECT_NAME": "FENGYUN 1C DEB", "OBJECT_ID": "1999-025EN", "EPOCH": "2025-12-20T03:50:57.605280", "MEAN_MOTION": 14.31999595, "ECCENTRICITY": 0.01684251, "INCLINATION": 98.937, "RA_OF_ASC_NODE": 255.7276, "ARG_OF_PERICENTER": 145.4255, "MEAN_ANOMALY": 215.8019, "EPHEMERIS_TYPE": 0, "CLASSIFICATION_TYPE": "U", "NORAD_CAT_ID": 29844, "ELEMENT_SET_NO": 999, "REV_AT_EPOCH": 98447, "BSTAR": 0.00026463594, "MEAN_MOTION_DOT": 7.8e-06, "MEAN_MOTION_DDOT": 0}, "tle": {"line1": "1 29844U 99025EN  25354.16038895  .00000780  00000+0  26464-3 0  9990", "line2": "2 29844  98.9370 255.7276 0168425 145.4255 215.8019 14.31999595984474"}}, "geometry": {"type": "Point", "coordinates": [79.96943944489932, 22.725648537723295]}}, {"type": "Feature", "properties": {"norad_id": 29845, "name": "FENGYUN 1C DEB", "group": "fengyun-1c-debris", "lat": -70.61846218619172, "lon": 149.5178136421633, "alt_km": 856.0094659801298, "timestamp": "2025-12-20T14:38:02.241574+00:00", "meta": {"OBJECT_NAME": "FENGYUN 1C DEB", "OBJECT_ID": "1999-025EP", "EPOCH": "2025-12-20T00:17:51.760032", "MEAN_MOTION": 14.26501634, "ECCENTRICITY": 0.00780911, "INCLINATION": 98.5217, "RA_OF_ASC_NODE": 354.163, "ARG_OF_PERICENTER": 110.1158, "MEAN_ANOMALY": 315.9944, "EPHEMERIS_TYPE": 0, "CLASSIFICATION_TYPE": "U", "NORAD_CAT_ID": 29845, "ELEMENT_SET_NO": 999, "REV_AT_EPOCH": 98213, "BSTAR": 0.00039185526, "MEAN_MOTION_DOT": 9.33e-06, "MEAN_MOTION_DDOT": 0}, "tle": {"line1": "1 29845U 99025EP  25354.01240463  .00000933  00000+0  39186-3 0  9996", "line2": "2 29845  98.5217 354.1630 0078091 110.1158 315.9944 14.26501634982136"}}, "geometry": {"type": "Point", "coordinates": [149.5178136421633, -70.61846218619172]}}, {"type": "Feature", "properties": {"norad_id": 29846, "name": "FENGYUN 1C DEB", "group": "fengyun-1c-debris", "lat": 71.57916063228788, "lon": 9.033482159858028, "alt_km": 874.8241571005374, "timestamp": "2025-12-20T14:38:02.241585+00:00", "meta": {"OBJECT_NAME": "FENGYUN 1C DEB", "OBJECT_ID": "1999-025EQ", "EPOCH": "2025-12-19T01:21:08.296128", "MEAN_MOTION": 14.19096072, "ECCENTRICITY": 0.00837638, "INCLINATION": 98.6542, "RA_OF_ASC_NODE": 34.7281, "ARG_OF_PERICENTER": 285.884, "MEAN_ANOMALY": 135.9126, "EPHEMERIS_TYPE": 0, "CLASSIFICATION_TYPE": "U", "NORAD_CAT_ID": 29846, "ELEMENT_SET_NO": 999, "REV_AT_EPOCH": 97949, "BSTAR": 0.00011783858, "MEAN_MOTION_DOT": 2.11e-06, "MEAN_MOTION_DDOT": 0}, "tle": {"line1": "1 29846U 99025EQ  25353.05634602  .00000211  00000+0  11784-3 0  9995", "line2": "2 29846  98.6542  34.7281 0083763 285.8840 135.9126 14.19096072979496"}}, "geometry": {"type": "Point", "coordinates": [9.033482159858028, 71.57916063228788]}}, {"type": "Feature", "properties": {"norad_id": 29847, "name": "FENGYUN 1C DEB", "group": "fengyun-1c-debris", "lat": -43.00312602674952, "lon": 161.94066012867, "alt_km": 945.0154789919143, "timestamp": "2025-12-20T14:38:02.241595+00:00", "meta": {"OBJECT_NAME": "FENGYUN 1C DEB", "OBJECT_ID": "1999-025ER", "EPOCH": "2025-12-20T00:12:08.866080", "MEAN_MOTION": 14.03006168, "ECCENTRICITY": 0.00848678, "INCLINATION": 98.9031, "RA_OF_ASC_NODE": 349.7586, "ARG_OF_PERICENTER": 18.693, "MEAN_ANOMALY": 49.8662, "EPHEMERIS_TYPE": 0, "CLASSIFICATION_TYPE": "U", "NORAD_CAT_ID": 29847, "ELEMENT_SET_NO": 999, "REV_AT_EPOCH": 96837, "BSTAR": 0.00035991305, "MEAN_MOTION_DOT": 5.34e-06, "MEAN_MOTION_DDOT": 0}, "tle": {"line1": "1 29847U 99025ER  25354.00843595  .00000534  00000+0  35991-3 0  9999", "line2": "2 29847  98.9031 349.7586 0084867  18.6930  49.8662 14.03006168968371"}}, "geometry": {"type": "Point", "coordinates": [161.94066012867, -43.00312602674952]}}, {"type": "Feature", "properties": {"norad_id": 29848, "name": "FENGYUN 1C DEB", "group": "fengyun-1c-debris", "lat": 14.719399393535657, "lon": 42.870098548206386, "alt_km": 848.0836335861086, "timestamp": "2025-12-20T14:38:02.241605+00:00", "meta": {"OBJECT_NAME": "FENGYUN 1C DEB", "OBJECT_ID": "1999-025ES", "EPOCH": "2025-12-20T04:16:08.017248", "MEAN_MOTION": 14.20607126, "ECCENTRICITY": 0.01166119, "INCLINATION": 98.2485, "RA_OF_ASC_NODE": 220.283, "ARG_OF_PERICENTER": 273.4856, "MEAN_ANOMALY": 205.3649, "EPHEMERIS_TYPE": 0, "CLASSIFICATION_TYPE": "U", "NORAD_CAT_ID": 29848, "ELEMENT_SET_NO": 999, "REV_AT_EPOCH": 97223, "BSTAR": 0.00084734114, "MEAN_MOTION_DOT": 1.912e-05, "MEAN_MOTION_DDOT": 0}, "tle": {"line1": "1 29848U 99025ES  25354.17787057  .00001912  00000+0  84734-3 0  9998", "line2": "2 29848  98.2485 220.2830 0116611 273.4856 205.3649 14.20607126972238"}}, "geometry": {"type": "Point", "coordinates": [42.870098548206386, 14.719399393535657]}}, {"type": "Feature", "properties": {"norad_id": 29849, "name": "FENGYUN 1C DEB", "group": "fengyun-1c-debris", "lat": -69.67552263421271, "lon": 104.29731464787018, "alt_km": 887.917312401084, "timestamp": "2025-12-20T14:38:02.241615+00:00", "meta": {"OBJECT_NAME": "FENGYUN 1C DEB", "OBJECT_ID": "1999-025ET", "EPOCH": "2025-12-19T04:55:29.089056", "MEAN_MOTION": 14.04909243, "ECCENTRICITY": 0.00802495, "INCLINATION": 99.011, "RA_OF_ASC_NODE": 77.5362, "ARG_OF_PERICENTER": 26.4854, "MEAN_ANOMALY": 2.91, "EPHEMERIS_TYPE": 0, "CLASSIFICATION_TYPE": "U", "NORAD_CAT_ID": 29849, "ELEMENT_SET_NO": 999, "REV_AT_EPOCH": 96461, "BSTAR": 0.00065749096, "MEAN_MOTION_DOT": 1.043e-05, "MEAN_MOTION_DDOT": 0}, "tle": {"line1": "1 29849U 99025ET  25353.20519779  .00001043  00000+0  65749-3 0  9996", "line2": "2 29849  99.0110  77.5362 0080249  26.4854   2.9100 14.04909243964610"}}, "geometry": {"type": "Point", "coordinates": [104.29731464787018, -69.67552263421271]}}, {"type": "Feature", "properties": {"norad_id": 29850, "name": "FENGYUN 1C DEB", "group": "fengyun-1c-debris", "lat": 80.99776760416297, "lon": -144.00847063109944, "alt_km": 960.9382847834713, "timestamp": "2025-12-20T14:38:02.241626+00:00", "meta": {"OBJECT_NAME": "FENGYUN 1C DEB", "OBJECT_ID": "1999-025EU", "EPOCH": "2025-12-19T17:46:30.093312", "MEAN_MOTION": 13.99882264, "ECCENTRICITY": 0.01020065, "INCLINATION": 98.1248, "RA_OF_ASC_NODE": 279.6023, "ARG_OF_PERICENTER": 269.8268, "MEAN_ANOMALY": 118.7275, "EPHEMERIS_TYPE": 0, "CLASSIFICATION_TYPE": "U", "NORAD_CAT_ID": 29850, "ELEMENT_SET_NO": 999, "REV_AT_EPOCH": 96118, "BSTAR": 0.00085478106, "MEAN_MOTION_DOT": 1.275e-05, "MEAN_MOTION_DDOT": 0}, "tle": {"line1": "1 29850U 99025EU  25353.74062608  .00001275  00000+0  85478-3 0  9999", "line2": "2 29850  98.1248 279.6023 0102006 269.8268 118.7275 13.99882264961185"}}, "geometry": {"type": "Point", "coordinates": [-144.00847063109944, 80.99776760416297]}}, {"type": "Feature", "properties": {"norad_id": 29851, "name": "FENGYUN 1C DEB", "group": "fengyun-1c-debris", "lat": -62.85720677521843, "lon": 54.92284022893932, "alt_km": 954.6979794431018, "timestamp": "2025-12-20T14:38:02.241636+00:00", "meta": {"OBJECT_NAME": "FENGYUN 1C DEB", "OBJECT_ID": "1999-025EV", "EPOCH": "2025-12-20T03:07:49.570176", "MEAN_MOTION": 13.83605092, "ECCENTRICITY": 0.01423377, "INCLINATION": 99.5832, "RA_OF_ASC_NODE": 35.1943, "ARG_OF_PERICENTER": 207.9662, "MEAN_ANOMALY": 219.7867, "EPHEMERIS_TYPE": 0, "CLASSIFICATION_TYPE": "U", "NORAD_CAT_ID": 29851, "ELEMENT_SET_NO": 999, "REV_AT_EPOCH": 95469, "BSTAR": 0.00027581161, "MEAN_MOTION_DOT": 2.82e-06, "MEAN_MOTION_DDOT": 0}, "tle": {"line1": "1 29851U 99025EV  25354.13043484  .00000282  00000+0  27581-3 0  9993", "line2": "2 29851  99.5832  35.1943 0142337 207.9662 219.7867 13.83605092954690"}}, "geometry": {"type": "Point", "coordinates": [54.92284022893932, -62.85720677521843]}}, {"type": "Feature", "properties": {"norad_id": 29852, "name": "FENGYUN 1C DEB", "group": "fengyun-1c-debris", "lat": 67.37923759050288, "lon": -18.66563066127311, "alt_km": 811.2104629344258, "timestamp": "2025-12-20T14:38:02.241646+00:00", "meta": {"OBJECT_NAME": "FENGYUN 1C DEB", "OBJECT_ID": "1999-025EW", "EPOCH": "2025-12-20T00:58:59.689632", "MEAN_MOTION": 14.07108658, "ECCENTRICITY": 0.01350434, "INCLINATION": 99.3711, "RA_OF_ASC_NODE": 4.0924, "ARG_OF_PERICENTER": 129.8834, "MEAN_ANOMALY": 301.1582, "EPHEMERIS_TYPE": 0, "CLASSIFICATION_TYPE": "U", "NORAD_CAT_ID": 29852, "ELEMENT_SET_NO": 999, "REV_AT_EPOCH": 96087, "BSTAR": 0.0013621386, "MEAN_MOTION_DOT": 2.43e-05, "MEAN_MOTION_DDOT": 0}, "tle": {"line1": "1 29852U 99025EW  25354.04096863  .00002430  00000+0  13621-2 0  9999", "line2": "2 29852  99.3711   4.0924 0135043 129.8834 301.1582 14.07108658960878"}}, "geometry": {"type": "Point", "coordinates": [-18.66563066127311, 67.37923759050288]}}]}